STARLINK-1559           
1 46077U 20055BC  26068.23360559  .00042685  00000+0  14779-2 0  9995
2 46077  53.0254  76.0659 0004229  33.9710 326.1559 15.29461733309518
STARLINK-31584          
1 59862U 24098E   26068.00823539 -.00000815  00000+0 -20108-4 0  9995
2 59862  42.9997 281.7009 0000818 257.1294 102.9466 15.27580285101740
